{"type": "FeatureCollection", "features": [ {"type": "Feature", "properties": {"norad_id": 66959, "name": "STARLINK-35887", "group": "last-30-days", "lat": 8.183125576381936, "lon": 110.39542290952919, "alt_km": 349.1486569668259, "timestamp": "2025-12-23T11:34:46.948377+00:00", "meta": {"OBJECT_NAME": "STARLINK-35887", "OBJECT_ID": "2025-288A", "EPOCH": "2025-12-23T04:00:01.998720", "MEAN_MOTION": 15.74375728, "ECCENTRICITY": 0.0001655, "INCLINATION": 43.0006, "RA_OF_ASC_NODE": 103.4307, "ARG_OF_PERICENTER": 270.9838, "MEAN_ANOMALY": 109.8542, "EPHEMERIS_TYPE": 0, "CLASSIFICATION_TYPE": "U", "NORAD_CAT_ID": 66959, "ELEMENT_SET_NO": 999, "REV_AT_EPOCH": 350, "BSTAR": -0.014802, "MEAN_MOTION_DOT": -0.01917812, "MEAN_MOTION_DDOT": 0}, "tle": {"line1": "1 66959U 25288A   25357.16668980 -.01917812  00000+0 -14802-1 0  9992", "line2": "2 66959  43.0006 103.4307 0001655 270.9838 109.8542 15.74375728  3508"}}, "geometry": {"type": "Point", "coordinates": [110.39542290952919, 8.183125576381936]}}, {"type": "Feature", "properties": {"norad_id": 66960, "name": "STARLINK-35879", "group": "last-30-days", "lat": 9.467425701167967, "lon": 111.8219585739747, "alt_km": 348.9920187055368, "timestamp": "2025-12-23T11:34:46.948386+00:00", "meta": {"OBJECT_NAME": "STARLINK-35879", "OBJECT_ID": "2025-288B", "EPOCH": "2025-12-23T04:00:01.998720", "MEAN_MOTION": 15.74385667, "ECCENTRICITY": 0.0001472, "INCLINATION": 43.0006, "RA_OF_ASC_NODE": 103.4257, "ARG_OF_PERICENTER": 269.5066, "MEAN_ANOMALY": 113.2334, "EPHEMERIS_TYPE": 0, "CLASSIFICATION_TYPE": "U", "NORAD_CAT_ID": 66960, "ELEMENT_SET_NO": 999, "REV_AT_EPOCH": 350, "BSTAR": -0.014819, "MEAN_MOTION_DOT": -0.0192031, "MEAN_MOTION_DDOT": 0}, "tle": {"line1": "1 66960U 25288B   25357.16668980 -.01920310  00000+0 -14819-1 0  9999", "line2": "2 66960  43.0006 103.4257 0001472 269.5066 113.2334 15.74385667  3509"}}, "geometry": {"type": "Point", "coordinates": [111.8219585739747, 9.467425701167967]}}, {"type": "Feature", "properties": {"norad_id": 66961, "name": "STARLINK-35761", "group": "last-30-days", "lat": 10.754957293957894, "lon": 113.27000576796772, "alt_km": 349.0163115314517, "timestamp": "2025-12-23T11:34:46.948395+00:00", "meta": {"OBJECT_NAME": "STARLINK-35761", "OBJECT_ID": "2025-288C", "EPOCH": "2025-12-23T04:00:01.998720", "MEAN_MOTION": 15.74378325, "ECCENTRICITY": 0.0001722, "INCLINATION": 43.0005, "RA_OF_ASC_NODE": 103.4211, "ARG_OF_PERICENTER": 264.9923, "MEAN_ANOMALY": 119.6771, "EPHEMERIS_TYPE": 0, "CLASSIFICATION_TYPE": "U", "NORAD_CAT_ID": 66961, "ELEMENT_SET_NO": 999, "REV_AT_EPOCH": 350, "BSTAR": -0.01482, "MEAN_MOTION_DOT": -0.01920073, "MEAN_MOTION_DDOT": 0}, "tle": {"line1": "1 66961U 25288C   25357.16668980 -.01920073  00000+0 -14820-1 0  9998", "line2": "2 66961  43.0005 103.4211 0001722 264.9923 119.6771 15.74378325  3506"}}, "geometry": {"type": "Point", "coordinates": [113.27000576796772, 10.754957293957894]}}, {"type": "Feature", "properties": {"norad_id": 66962, "name": "STARLINK-35874", "group": "last-30-days", "lat": 12.027535958160664, "lon": 114.72004513809071, "alt_km": 348.55408808640186, "timestamp": "2025-12-23T11:34:46.948404+00:00", "meta": {"OBJECT_NAME": "STARLINK-35874", "OBJECT_ID": "2025-288D", "EPOCH": "2025-12-23T04:00:01.998720", "MEAN_MOTION": 15.74374455, "ECCENTRICITY": 0.0001446, "INCLINATION": 43.0007, "RA_OF_ASC_NODE": 103.4156, "ARG_OF_PERICENTER": 275.4222, "MEAN_ANOMALY": 111.1596, "EPHEMERIS_TYPE": 0, "CLASSIFICATION_TYPE": "U", "NORAD_CAT_ID": 66962, "ELEMENT_SET_NO": 999, "REV_AT_EPOCH": 350, "BSTAR": -0.014724, "MEAN_MOTION_DOT": -0.01908795, "MEAN_MOTION_DDOT": 0}, "tle": {"line1": "1 66962U 25288D   25357.16668980 -.01908795  00000+0 -14724-1 0  9999", "line2": "2 66962  43.0007 103.4156 0001446 275.4222 111.1596 15.74374455  3501"}}, "geometry": {"type": "Point", "coordinates": [114.72004513809071, 12.027535958160664]}}, {"type": "Feature", "properties": {"norad_id": 66963, "name": "STARLINK-36133", "group": "last-30-days", "lat": 13.296298602743077, "lon": 116.1895613321759, "alt_km": 348.45302504476786, "timestamp": "2025-12-23T11:34:46.948414+00:00", "meta": {"OBJECT_NAME": "STARLINK-36133", "OBJECT_ID": "2025-288E", "EPOCH": "2025-12-23T04:00:01.998720", "MEAN_MOTION": 15.74372522, "ECCENTRICITY": 0.0001373, "INCLINATION": 43.0006, "RA_OF_ASC_NODE": 103.4112, "ARG_OF_PERICENTER": 272.7175, "MEAN_ANOMALY": 115.7842, "EPHEMERIS_TYPE": 0, "CLASSIFICATION_TYPE": "U", "NORAD_CAT_ID": 66963, "ELEMENT_SET_NO": 999, "REV_AT_EPOCH": 350, "BSTAR": -0.014723, "MEAN_MOTION_DOT": -0.01908432, "MEAN_MOTION_DDOT": 0}, "tle": {"line1": "1 66963U 25288E   25357.16668980 -.01908432  00000+0 -14723-1 0  9997", "line2": "2 66963  43.0006 103.4112 0001373 272.7175 115.7842 15.74372522  3506"}}, "geometry": {"type": "Point", "coordinates": [116.1895613321759, 13.296298602743077]}}, {"type": "Feature", "properties": {"norad_id": 66964, "name": "STARLINK-36104", "group": "last-30-days", "lat": 14.55625110958954, "lon": 117.67318351007296, "alt_km": 348.2201483387553, "timestamp": "2025-12-23T11:34:46.948425+00:00", "meta": {"OBJECT_NAME": "STARLINK-36104", "OBJECT_ID": "2025-288F", "EPOCH": "2025-12-23T04:00:01.998720", "MEAN_MOTION": 15.74375952, "ECCENTRICITY": 0.0001419, "INCLINATION": 43.0008, "RA_OF_ASC_NODE": 103.4059, "ARG_OF_PERICENTER": 276.1831, "MEAN_ANOMALY": 114.2304, "EPHEMERIS_TYPE": 0, "CLASSIFICATION_TYPE": "U", "NORAD_CAT_ID": 66964, "ELEMENT_SET_NO": 999, "REV_AT_EPOCH": 350, "BSTAR": -0.014727, "MEAN_MOTION_DOT": -0.01909187, "MEAN_MOTION_DDOT": 0}, "tle": {"line1": "1 66964U 25288F   25357.16668980 -.01909187  00000+0 -14727-1 0  9990", "line2": "2 66964  43.0008 103.4059 0001419 276.1831 114.2304 15.74375952  3504"}}, "geometry": {"type": "Point", "coordinates": [117.67318351007296, 14.55625110958954]}}, {"type": "Feature", "properties": {"norad_id": 66965, "name": "STARLINK-36067", "group": "last-30-days", "lat": 15.805198293528113, "lon": 119.17307058179398, "alt_km": 348.32875967914424, "timestamp": "2025-12-23T11:34:46.948435+00:00", "meta": {"OBJECT_NAME": "STARLINK-36067", "OBJECT_ID": "2025-288G", "EPOCH": "2025-12-23T04:00:01.998720", "MEAN_MOTION": 15.74396591, "ECCENTRICITY": 0.0001465, "INCLINATION": 43.0007, "RA_OF_ASC_NODE": 103.4015, "ARG_OF_PERICENTER": 263.6288, "MEAN_ANOMALY": 128.685, "EPHEMERIS_TYPE": 0, "CLASSIFICATION_TYPE": "U", "NORAD_CAT_ID": 66965, "ELEMENT_SET_NO": 999, "REV_AT_EPOCH": 350, "BSTAR": -0.014879, "MEAN_MOTION_DOT": -0.01927787, "MEAN_MOTION_DDOT": 0}, "tle": {"line1": "1 66965U 25288G   25357.16668980 -.01927787  00000+0 -14879-1 0  9995", "line2": "2 66965  43.0007 103.4015 0001465 263.6288 128.6850 15.74396591  3501"}}, "geometry": {"type": "Point", "coordinates": [119.17307058179398, 15.805198293528113]}}, {"type": "Feature", "properties": {"norad_id": 66966, "name": "STARLINK-36139", "group": "last-30-days", "lat": 17.048697998461083, "lon": 120.69741199111563, "alt_km": 348.1915868916867, "timestamp": "2025-12-23T11:34:46.948444+00:00", "meta": {"OBJECT_NAME": "STARLINK-36139", "OBJECT_ID": "2025-288H", "EPOCH": "2025-12-23T04:00:01.998720", "MEAN_MOTION": 15.74384112, "ECCENTRICITY": 0.0001982, "INCLINATION": 43.0004, "RA_OF_ASC_NODE": 103.3965, "ARG_OF_PERICENTER": 269.5361, "MEAN_ANOMALY": 124.7005, "EPHEMERIS_TYPE": 0, "CLASSIFICATION_TYPE": "U", "NORAD_CAT_ID": 66966, "ELEMENT_SET_NO": 999, "REV_AT_EPOCH": 350, "BSTAR": -0.014756, "MEAN_MOTION_DOT": -0.01913554, "MEAN_MOTION_DDOT": 0}, "tle": {"line1": "1 66966U 25288H   25357.16668980 -.01913554  00000+0 -14756-1 0  9997", "line2": "2 66966  43.0004 103.3965 0001982 269.5361 124.7005 15.74384112  3508"}}, "geometry": {"type": "Point", "coordinates": [120.69741199111563, 17.048697998461083]}}, {"type": "Feature", "properties": {"norad_id": 66967, "name": "STARLINK-36136", "group": "last-30-days", "lat": 18.27610235147709, "lon": 122.23640251365514, "alt_km": 348.2750899744942, "timestamp": "2025-12-23T11:34:46.948452+00:00", "meta": {"OBJECT_NAME": "STARLINK-36136", "OBJECT_ID": "2025-288J", "EPOCH": "2025-12-23T04:00:01.998720", "MEAN_MOTION": 15.74348172, "ECCENTRICITY": 0.000186, "INCLINATION": 43.0005, "RA_OF_ASC_NODE": 103.3917, "ARG_OF_PERICENTER": 259.1218, "MEAN_ANOMALY": 137.0582, "EPHEMERIS_TYPE": 0, "CLASSIFICATION_TYPE": "U", "NORAD_CAT_ID": 66967, "ELEMENT_SET_NO": 999, "REV_AT_EPOCH": 350, "BSTAR": -0.014464, "MEAN_MOTION_DOT": -0.01878093, "MEAN_MOTION_DDOT": 0}, "tle": {"line1": "1 66967U 25288J   25357.16668980 -.01878093  00000+0 -14464-1 0  9992", "line2": "2 66967  43.0005 103.3917 0001860 259.1218 137.0582 15.74348172  3501"}}, "geometry": {"type": "Point", "coordinates": [122.23640251365514, 18.27610235147709]}}, {"type": "Feature", "properties": {"norad_id": 66968, "name": "STARLINK-36152", "group": "last-30-days", "lat": 19.493184510594958, "lon": 123.80008443863672, "alt_km": 347.6895294845581, "timestamp": "2025-12-23T11:34:46.948461+00:00", "meta": {"OBJECT_NAME": "STARLINK-36152", "OBJECT_ID": "2025-288K", "EPOCH": "2025-12-23T04:00:01.998720", "MEAN_MOTION": 15.74381307, "ECCENTRICITY": 0.0001367, "INCLINATION": 43.0006, "RA_OF_ASC_NODE": 103.3869, "ARG_OF_PERICENTER": 271.0213, "MEAN_ANOMALY": 127.0594, "EPHEMERIS_TYPE": 0, "CLASSIFICATION_TYPE": "U", "NORAD_CAT_ID": 66968, "ELEMENT_SET_NO": 999, "REV_AT_EPOCH": 350, "BSTAR": -0.014794, "MEAN_MOTION_DOT": -0.01917053, "MEAN_MOTION_DDOT": 0}, "tle": {"line1": "1 66968U 25288K   25357.16668980 -.01917053  00000+0 -14794-1 0  9999", "line2": "2 66968  43.0006 103.3869 0001367 271.0213 127.0594 15.74381307  3508"}}, "geometry": {"type": "Point", "coordinates": [123.80008443863672, 19.493184510594958]}}]}